LEMUR-1                 
1 40044U 14033AL  26190.39068934  .00001258  00000+0  14974-3 0  9996
2 40044  97.7901 339.7062 0048283   7.0442 353.1441 14.85326036648769
LEMUR-2-GREENBERG       
1 42837U 17042N   26190.49536315  .00011532  00000+0  37497-3 0  9996
2 42837  97.3831  11.0293 0007135 283.6729  76.3718 15.32031511491802
LEMUR-2-ANDIS           
1 42838U 17042P   26190.73271360  .00015725  00000+0  45347-3 0  9991
2 42838  97.3683  11.5304 0007099 281.4571  78.5875 15.35772741491916
LEMUR-2-MONSON          
1 42839U 17042Q   26191.46928106  .00009600  00000+0  34677-3 0  9999
2 42839  97.4089  11.9359 0005156 266.7916  93.2733 15.28674858491721
LEMUR-2-FURIAUS         
1 42840U 17042R   26191.74629140  .00012077  00000+0  40490-3 0  9990
2 42840  97.3778  10.1778 0006360 347.2297  12.8782 15.31036825491819
LEMUR-2-PETERG          
1 42841U 17042S   26190.46965602  .00016921  00000+0  50201-3 0  9998
2 42841  97.3999  15.5513 0002949 247.6478 112.4453 15.34883639491856
LEMUR-2-DEMBITZ         
1 42842U 17042T   26191.43918648  .00012615  00000+0  42317-3 0  9990
2 42842  97.3830  12.9130 0005051 296.1188  63.9533 15.31014043491908
LEMUR-2-ZACHARY         
1 42845U 17042W   26190.83151952  .00040627  00000+0  66596-3 0  9992
2 42845  97.3589  22.9819 0002379 275.3054  84.7927 15.52354875492719
LEMUR-2-AMANDA-SVANTE   
1 48269U 21034B   26191.75987000  .00023811  00000+0  68509-3 0  9999
2 48269  97.5756 270.6898 0004359 153.1943 206.9526 15.35774896284679
LEMUR-2-SPECIAL-K       
1 48273U 21034F   26190.48357970  .00187516  00000+0  13703-2 0  9998
2 48273  97.5638 279.0810 0006094 220.1944 139.8869 15.72652165285180
LEMUR-2-EMBRIONOVIS     
1 56970U 23084AQ  26191.36601596  .00010396  00000+0  27880-3 0  9995
2 56970  97.6309 336.4682 0007916 225.0673 134.9930 15.38146742171248
LEMUR-2-DEVERILL-M-T    
1 57391U 23100F   26191.55573213  .00019034  00000+0  46465-3 0  9995
2 57391  99.4467 237.0829 0004687 316.3401  43.7467 15.40939076164848
LEMUR-2-BASS            
1 58259U 23174D   26191.74377171  .00012729  00000+0  28182-3 0  9996
2 58259  97.3846 276.7969 0007873  91.3531 268.8619 15.43894433148996
LEMUR-2-JK0903EM1407    
1 58336U 23174CJ  26191.67296247  .00020864  00000+0  33684-3 0  9990
2 58336  97.3920 282.8247 0004020  48.4668 311.6929 15.52906691149371
LEMUR-2-MJR092620       
1 58340U 23174CN  26191.79406036  .00014240  00000+0  29593-3 0  9992
2 58340  97.3975 282.2713 0005715  45.0366 315.1345 15.45755301149292
LEMUR-2-NIMBUS2000      
1 58899U 24022A   26191.65828193  .00016167  00000+0  39344-3 0  9996
2 58899  97.4094  41.9672 0009212  43.8617 316.3359 15.40987800135883
