{"fetched_at":"2026-07-11T06:35:10.092Z","source":"https://celestrak.org/NORAD/elements/gp.php?GROUP=spire&FORMAT=JSON","constellation":"spire","records":[{"OBJECT_NAME":"LEMUR-1","OBJECT_ID":"2014-033AL","EPOCH":"2026-07-09T09:22:35.558976","CLASSIFICATION_TYPE":"U","MEAN_MOTION":14.85326036,"ECCENTRICITY":0.00482834,"INCLINATION":97.7901,"RA_OF_ASC_NODE":339.7062,"ARG_OF_PERICENTER":7.0442,"MEAN_ANOMALY":353.1441,"EPHEMERIS_TYPE":0,"NORAD_CAT_ID":40044,"ELEMENT_SET_NO":999,"REV_AT_EPOCH":64876,"BSTAR":0.00014974479,"MEAN_MOTION_DOT":0.00001258,"MEAN_MOTION_DDOT":0},{"OBJECT_NAME":"LEMUR-2-GREENBERG","OBJECT_ID":"2017-042N","EPOCH":"2026-07-09T11:53:19.376160","CLASSIFICATION_TYPE":"U","MEAN_MOTION":15.32031511,"ECCENTRICITY":0.00071356,"INCLINATION":97.3831,"RA_OF_ASC_NODE":11.0293,"ARG_OF_PERICENTER":283.6729,"MEAN_ANOMALY":76.3718,"EPHEMERIS_TYPE":0,"NORAD_CAT_ID":42837,"ELEMENT_SET_NO":999,"REV_AT_EPOCH":49180,"BSTAR":0.0003749711,"MEAN_MOTION_DOT":0.00011532,"MEAN_MOTION_DDOT":0},{"OBJECT_NAME":"LEMUR-2-ANDIS","OBJECT_ID":"2017-042P","EPOCH":"2026-07-09T17:35:06.455040","CLASSIFICATION_TYPE":"U","MEAN_MOTION":15.35772741,"ECCENTRICITY":0.00070991,"INCLINATION":97.3683,"RA_OF_ASC_NODE":11.5304,"ARG_OF_PERICENTER":281.4571,"MEAN_ANOMALY":78.5875,"EPHEMERIS_TYPE":0,"NORAD_CAT_ID":42838,"ELEMENT_SET_NO":999,"REV_AT_EPOCH":49191,"BSTAR":0.00045347156,"MEAN_MOTION_DOT":0.00015725,"MEAN_MOTION_DDOT":0},{"OBJECT_NAME":"LEMUR-2-MONSON","OBJECT_ID":"2017-042Q","EPOCH":"2026-07-10T11:15:45.883584","CLASSIFICATION_TYPE":"U","MEAN_MOTION":15.28674858,"ECCENTRICITY":0.00051568,"INCLINATION":97.4089,"RA_OF_ASC_NODE":11.9359,"ARG_OF_PERICENTER":266.7916,"MEAN_ANOMALY":93.2733,"EPHEMERIS_TYPE":0,"NORAD_CAT_ID":42839,"ELEMENT_SET_NO":999,"REV_AT_EPOCH":49172,"BSTAR":0.00034676682,"MEAN_MOTION_DOT":0.000096,"MEAN_MOTION_DDOT":0},{"OBJECT_NAME":"LEMUR-2-FURIAUS","OBJECT_ID":"2017-042R","EPOCH":"2026-07-10T17:54:39.576960","CLASSIFICATION_TYPE":"U","MEAN_MOTION":15.31036825,"ECCENTRICITY":0.000636,"INCLINATION":97.3778,"RA_OF_ASC_NODE":10.1778,"ARG_OF_PERICENTER":347.2297,"MEAN_ANOMALY":12.8782,"EPHEMERIS_TYPE":0,"NORAD_CAT_ID":42840,"ELEMENT_SET_NO":999,"REV_AT_EPOCH":49181,"BSTAR":0.0004049,"MEAN_MOTION_DOT":0.00012077,"MEAN_MOTION_DDOT":0},{"OBJECT_NAME":"LEMUR-2-PETERG","OBJECT_ID":"2017-042S","EPOCH":"2026-07-09T11:16:18.280128","CLASSIFICATION_TYPE":"U","MEAN_MOTION":15.34883639,"ECCENTRICITY":0.00029493,"INCLINATION":97.3999,"RA_OF_ASC_NODE":15.5513,"ARG_OF_PERICENTER":247.6478,"MEAN_ANOMALY":112.4453,"EPHEMERIS_TYPE":0,"NORAD_CAT_ID":42841,"ELEMENT_SET_NO":999,"REV_AT_EPOCH":49185,"BSTAR":0.00050201144,"MEAN_MOTION_DOT":0.00016921,"MEAN_MOTION_DDOT":0},{"OBJECT_NAME":"LEMUR-2-DEMBITZ","OBJECT_ID":"2017-042T","EPOCH":"2026-07-10T10:32:25.711872","CLASSIFICATION_TYPE":"U","MEAN_MOTION":15.31014043,"ECCENTRICITY":0.00050513,"INCLINATION":97.383,"RA_OF_ASC_NODE":12.913,"ARG_OF_PERICENTER":296.1188,"MEAN_ANOMALY":63.9533,"EPHEMERIS_TYPE":0,"NORAD_CAT_ID":42842,"ELEMENT_SET_NO":999,"REV_AT_EPOCH":49190,"BSTAR":0.00042317105,"MEAN_MOTION_DOT":0.00012615,"MEAN_MOTION_DDOT":0},{"OBJECT_NAME":"LEMUR-2-ZACHARY","OBJECT_ID":"2017-042W","EPOCH":"2026-07-09T19:57:23.286528","CLASSIFICATION_TYPE":"U","MEAN_MOTION":15.52354875,"ECCENTRICITY":0.00023798,"INCLINATION":97.3589,"RA_OF_ASC_NODE":22.9819,"ARG_OF_PERICENTER":275.3054,"MEAN_ANOMALY":84.7927,"EPHEMERIS_TYPE":0,"NORAD_CAT_ID":42845,"ELEMENT_SET_NO":999,"REV_AT_EPOCH":49271,"BSTAR":0.00066596221,"MEAN_MOTION_DOT":0.00040627,"MEAN_MOTION_DDOT":0},{"OBJECT_NAME":"LEMUR-2-AMANDA-SVANTE","OBJECT_ID":"2021-034B","EPOCH":"2026-07-10T18:14:12.768000","CLASSIFICATION_TYPE":"U","MEAN_MOTION":15.35774896,"ECCENTRICITY":0.0004359,"INCLINATION":97.5756,"RA_OF_ASC_NODE":270.6898,"ARG_OF_PERICENTER":153.1943,"MEAN_ANOMALY":206.9526,"EPHEMERIS_TYPE":0,"NORAD_CAT_ID":48269,"ELEMENT_SET_NO":999,"REV_AT_EPOCH":28467,"BSTAR":0.00068509,"MEAN_MOTION_DOT":0.00023811,"MEAN_MOTION_DDOT":0},{"OBJECT_NAME":"LEMUR-2-SPECIAL-K","OBJECT_ID":"2021-034F","EPOCH":"2026-07-09T11:36:21.286080","CLASSIFICATION_TYPE":"U","MEAN_MOTION":15.72652165,"ECCENTRICITY":0.00060947,"INCLINATION":97.5638,"RA_OF_ASC_NODE":279.081,"ARG_OF_PERICENTER":220.1944,"MEAN_ANOMALY":139.8869,"EPHEMERIS_TYPE":0,"NORAD_CAT_ID":48273,"ELEMENT_SET_NO":999,"REV_AT_EPOCH":28518,"BSTAR":0.001370293,"MEAN_MOTION_DOT":0.00187516,"MEAN_MOTION_DDOT":0},{"OBJECT_NAME":"LEMUR-2-EMBRIONOVIS","OBJECT_ID":"2023-084AQ","EPOCH":"2026-07-10T08:47:03.778944","CLASSIFICATION_TYPE":"U","MEAN_MOTION":15.38146742,"ECCENTRICITY":0.00079165,"INCLINATION":97.6309,"RA_OF_ASC_NODE":336.4682,"ARG_OF_PERICENTER":225.0673,"MEAN_ANOMALY":134.993,"EPHEMERIS_TYPE":0,"NORAD_CAT_ID":56970,"ELEMENT_SET_NO":999,"REV_AT_EPOCH":17124,"BSTAR":0.0002788,"MEAN_MOTION_DOT":0.00010396,"MEAN_MOTION_DDOT":0},{"OBJECT_NAME":"LEMUR-2-DEVERILL-M-T","OBJECT_ID":"2023-100F","EPOCH":"2026-07-10T13:20:15.256032","CLASSIFICATION_TYPE":"U","MEAN_MOTION":15.40939076,"ECCENTRICITY":0.0004687,"INCLINATION":99.4467,"RA_OF_ASC_NODE":237.0829,"ARG_OF_PERICENTER":316.3401,"MEAN_ANOMALY":43.7467,"EPHEMERIS_TYPE":0,"NORAD_CAT_ID":57391,"ELEMENT_SET_NO":999,"REV_AT_EPOCH":16484,"BSTAR":0.00046465,"MEAN_MOTION_DOT":0.00019034,"MEAN_MOTION_DDOT":0},{"OBJECT_NAME":"LEMUR-2-BASS","OBJECT_ID":"2023-174D","EPOCH":"2026-07-10T17:51:01.875744","CLASSIFICATION_TYPE":"U","MEAN_MOTION":15.43894433,"ECCENTRICITY":0.0007873,"INCLINATION":97.3846,"RA_OF_ASC_NODE":276.7969,"ARG_OF_PERICENTER":91.3531,"MEAN_ANOMALY":268.8619,"EPHEMERIS_TYPE":0,"NORAD_CAT_ID":58259,"ELEMENT_SET_NO":999,"REV_AT_EPOCH":14899,"BSTAR":0.00028182,"MEAN_MOTION_DOT":0.00012729,"MEAN_MOTION_DDOT":0},{"OBJECT_NAME":"LEMUR-2-JK0903EM1407","OBJECT_ID":"2023-174CJ","EPOCH":"2026-07-10T16:09:03.957408","CLASSIFICATION_TYPE":"U","MEAN_MOTION":15.52906691,"ECCENTRICITY":0.000402,"INCLINATION":97.392,"RA_OF_ASC_NODE":282.8247,"ARG_OF_PERICENTER":48.4668,"MEAN_ANOMALY":311.6929,"EPHEMERIS_TYPE":0,"NORAD_CAT_ID":58336,"ELEMENT_SET_NO":999,"REV_AT_EPOCH":14937,"BSTAR":0.00033684,"MEAN_MOTION_DOT":0.00020864,"MEAN_MOTION_DDOT":0},{"OBJECT_NAME":"LEMUR-2-MJR092620","OBJECT_ID":"2023-174CN","EPOCH":"2026-07-10T19:03:26.815104","CLASSIFICATION_TYPE":"U","MEAN_MOTION":15.45755301,"ECCENTRICITY":0.0005715,"INCLINATION":97.3975,"RA_OF_ASC_NODE":282.2713,"ARG_OF_PERICENTER":45.0366,"MEAN_ANOMALY":315.1345,"EPHEMERIS_TYPE":0,"NORAD_CAT_ID":58340,"ELEMENT_SET_NO":999,"REV_AT_EPOCH":14929,"BSTAR":0.00029593,"MEAN_MOTION_DOT":0.0001424,"MEAN_MOTION_DDOT":0},{"OBJECT_NAME":"LEMUR-2-NIMBUS2000","OBJECT_ID":"2024-022A","EPOCH":"2026-07-10T15:47:55.558752","CLASSIFICATION_TYPE":"U","MEAN_MOTION":15.409878,"ECCENTRICITY":0.0009212,"INCLINATION":97.4094,"RA_OF_ASC_NODE":41.9672,"ARG_OF_PERICENTER":43.8617,"MEAN_ANOMALY":316.3359,"EPHEMERIS_TYPE":0,"NORAD_CAT_ID":58899,"ELEMENT_SET_NO":999,"REV_AT_EPOCH":13588,"BSTAR":0.00039344,"MEAN_MOTION_DOT":0.00016167,"MEAN_MOTION_DDOT":0}]}
